{"type": "FeatureCollection", "features": [ {"type": "Feature", "properties": {"norad_id": 41785, "name": "ALSAT 1B", "group": "resource", "lat": -1.3515873412903003, "lon": 8.922688490674396, "alt_km": 655.5954940621086, "timestamp": "2025-12-23T09:49:06.733830+00:00", "meta": {"OBJECT_NAME": "ALSAT 1B", "OBJECT_ID": "2016-059C", "EPOCH": "2025-12-23T00:02:12.267168", "MEAN_MOTION": 14.72085338, "ECCENTRICITY": 0.00107791, "INCLINATION": 97.7804, "RA_OF_ASC_NODE": 8.3479, "ARG_OF_PERICENTER": 74.7455, "MEAN_ANOMALY": 285.4944, "EPHEMERIS_TYPE": 0, "CLASSIFICATION_TYPE": "U", "NORAD_CAT_ID": 41785, "ELEMENT_SET_NO": 999, "REV_AT_EPOCH": 49465, "BSTAR": 8.0183944e-05, "MEAN_MOTION_DOT": 4.57e-06, "MEAN_MOTION_DDOT": 0}, "tle": {"line1": "1 41785U 16059C   25357.00153087  .00000457  00000+0  80184-4 0  9992", "line2": "2 41785  97.7804   8.3479 0010779  74.7455 285.4944 14.72085338494654"}}, "geometry": {"type": "Point", "coordinates": [8.922688490674396, -1.3515873412903003]}}, {"type": "Feature", "properties": {"norad_id": 41787, "name": "PATHFINDER 1", "group": "resource", "lat": -73.27200859089034, "lon": 152.50081400113982, "alt_km": 695.6215978354858, "timestamp": "2025-12-23T09:49:06.733840+00:00", "meta": {"OBJECT_NAME": "PATHFINDER 1", "OBJECT_ID": "2016-059E", "EPOCH": "2025-12-22T22:50:24.395136", "MEAN_MOTION": 14.6733842, "ECCENTRICITY": 0.00297194, "INCLINATION": 97.8137, "RA_OF_ASC_NODE": 359.2514, "ARG_OF_PERICENTER": 50.0679, "MEAN_ANOMALY": 310.3131, "EPHEMERIS_TYPE": 0, "CLASSIFICATION_TYPE": "U", "NORAD_CAT_ID": 41787, "ELEMENT_SET_NO": 999, "REV_AT_EPOCH": 49386, "BSTAR": 0.00014467251, "MEAN_MOTION_DOT": 7.76e-06, "MEAN_MOTION_DDOT": 0}, "tle": {"line1": "1 41787U 16059E   25356.95167124  .00000776  00000+0  14467-3 0  9998", "line2": "2 41787  97.8137 359.2514 0029719  50.0679 310.3131 14.67338420493868"}}, "geometry": {"type": "Point", "coordinates": [152.50081400113982, -73.27200859089034]}}, {"type": "Feature", "properties": {"norad_id": 41790, "name": "SCATSAT 1", "group": "resource", "lat": -26.372526658256064, "lon": 58.28386067848303, "alt_km": 658.4522117326578, "timestamp": "2025-12-23T09:49:06.733850+00:00", "meta": {"OBJECT_NAME": "SCATSAT 1", "OBJECT_ID": "2016-059H", "EPOCH": "2025-12-22T14:27:15.854112", "MEAN_MOTION": 14.78966851, "ECCENTRICITY": 0.00564639, "INCLINATION": 98.1449, "RA_OF_ASC_NODE": 53.3952, "ARG_OF_PERICENTER": 96.9229, "MEAN_ANOMALY": 263.8409, "EPHEMERIS_TYPE": 0, "CLASSIFICATION_TYPE": "U", "NORAD_CAT_ID": 41790, "ELEMENT_SET_NO": 999, "REV_AT_EPOCH": 7548, "BSTAR": 0.00017791286, "MEAN_MOTION_DOT": 1.292e-05, "MEAN_MOTION_DDOT": 0}, "tle": {"line1": "1 41790U 16059H   25356.60226683  .00001292  00000+0  17791-3 0  9997", "line2": "2 41790  98.1449  53.3952 0056463  96.9229 263.8409 14.78966851 75487"}}, "geometry": {"type": "Point", "coordinates": [58.28386067848303, -26.372526658256064]}}, {"type": "Feature", "properties": {"norad_id": 41875, "name": "GOKTURK 1A", "group": "resource", "lat": 21.207152541789, "lon": 72.81692596038121, "alt_km": 683.8639415262332, "timestamp": "2025-12-23T09:49:06.733860+00:00", "meta": {"OBJECT_NAME": "GOKTURK 1A", "OBJECT_ID": "2016-073A", "EPOCH": "2025-12-22T23:14:47.601600", "MEAN_MOTION": 14.62791368, "ECCENTRICITY": 0.00012846, "INCLINATION": 98.1432, "RA_OF_ASC_NODE": 249.1975, "ARG_OF_PERICENTER": 81.6743, "MEAN_ANOMALY": 278.4604, "EPHEMERIS_TYPE": 0, "CLASSIFICATION_TYPE": "U", "NORAD_CAT_ID": 41875, "ELEMENT_SET_NO": 999, "REV_AT_EPOCH": 48306, "BSTAR": 0.00016145502, "MEAN_MOTION_DOT": 7.77e-06, "MEAN_MOTION_DDOT": 0}, "tle": {"line1": "1 41875U 16073A   25356.96860650  .00000777  00000+0  16146-3 0  9994", "line2": "2 41875  98.1432 249.1975 0001284  81.6743 278.4604 14.62791368483064"}}, "geometry": {"type": "Point", "coordinates": [72.81692596038121, 21.207152541789]}}, {"type": "Feature", "properties": {"norad_id": 41877, "name": "RESOURCESAT-2A", "group": "resource", "lat": 66.51023595150083, "lon": 46.38527018146142, "alt_km": 814.2491853987985, "timestamp": "2025-12-23T09:49:06.733870+00:00", "meta": {"OBJECT_NAME": "RESOURCESAT-2A", "OBJECT_ID": "2016-074A", "EPOCH": "2025-12-22T23:21:50.522688", "MEAN_MOTION": 14.216034, "ECCENTRICITY": 0.00015364, "INCLINATION": 98.7746, "RA_OF_ASC_NODE": 66.7697, "ARG_OF_PERICENTER": 208.0841, "MEAN_ANOMALY": 152.0253, "EPHEMERIS_TYPE": 0, "CLASSIFICATION_TYPE": "U", "NORAD_CAT_ID": 41877, "ELEMENT_SET_NO": 999, "REV_AT_EPOCH": 46926, "BSTAR": 7.7951378e-05, "MEAN_MOTION_DOT": 1.27e-06, "MEAN_MOTION_DDOT": 0}, "tle": {"line1": "1 41877U 16074A   25356.97350142  .00000127  00000+0  77951-4 0  9999", "line2": "2 41877  98.7746  66.7697 0001536 208.0841 152.0253 14.21603400469265"}}, "geometry": {"type": "Point", "coordinates": [46.38527018146142, 66.51023595150083]}}, {"type": "Feature", "properties": {"norad_id": 41948, "name": "CARTOSAT-2D", "group": "resource", "lat": -40.05973357651583, "lon": -131.56231724787474, "alt_km": 515.4209204777626, "timestamp": "2025-12-23T09:49:06.733880+00:00", "meta": {"OBJECT_NAME": "CARTOSAT-2D", "OBJECT_ID": "2017-008A", "EPOCH": "2025-12-23T02:31:42.927744", "MEAN_MOTION": 15.19164603, "ECCENTRICITY": 0.0005267, "INCLINATION": 97.4372, "RA_OF_ASC_NODE": 54.4449, "ARG_OF_PERICENTER": 123.7158, "MEAN_ANOMALY": 236.4579, "EPHEMERIS_TYPE": 0, "CLASSIFICATION_TYPE": "U", "NORAD_CAT_ID": 41948, "ELEMENT_SET_NO": 999, "REV_AT_EPOCH": 49084, "BSTAR": 0.00027119, "MEAN_MOTION_DOT": 5.636e-05, "MEAN_MOTION_DDOT": 0}, "tle": {"line1": "1 41948U 17008A   25357.10535796  .00005636  00000+0  27119-3 0  9992", "line2": "2 41948  97.4372  54.4449 0005267 123.7158 236.4579 15.19164603490844"}}, "geometry": {"type": "Point", "coordinates": [-131.56231724787474, -40.05973357651583]}}, {"type": "Feature", "properties": {"norad_id": 42063, "name": "SENTINEL-2B", "group": "resource", "lat": 29.52557130738469, "lon": 64.80528914687223, "alt_km": 787.1030707416439, "timestamp": "2025-12-23T09:49:06.733891+00:00", "meta": {"OBJECT_NAME": "SENTINEL-2B", "OBJECT_ID": "2017-013A", "EPOCH": "2025-12-22T23:36:33.558336", "MEAN_MOTION": 14.30813717, "ECCENTRICITY": 0.00011922, "INCLINATION": 98.5708, "RA_OF_ASC_NODE": 69.2858, "ARG_OF_PERICENTER": 92.4827, "MEAN_ANOMALY": 267.6492, "EPHEMERIS_TYPE": 0, "CLASSIFICATION_TYPE": "U", "NORAD_CAT_ID": 42063, "ELEMENT_SET_NO": 999, "REV_AT_EPOCH": 45944, "BSTAR": -1.017062e-06, "MEAN_MOTION_DOT": -4.6e-07, "MEAN_MOTION_DDOT": 0}, "tle": {"line1": "1 42063U 17013A   25356.98372174 -.00000046  00000+0 -10171-5 0  9995", "line2": "2 42063  98.5708  69.2858 0001192  92.4827 267.6492 14.30813717459444"}}, "geometry": {"type": "Point", "coordinates": [64.80528914687223, 29.52557130738469]}}, {"type": "Feature", "properties": {"norad_id": 42767, "name": "CARTOSAT-2E", "group": "resource", "lat": 49.84287184372228, "lon": -116.21739543287461, "alt_km": 502.5066379338523, "timestamp": "2025-12-23T09:49:06.733902+00:00", "meta": {"OBJECT_NAME": "CARTOSAT-2E", "OBJECT_ID": "2017-036C", "EPOCH": "2025-12-22T23:45:58.273920", "MEAN_MOTION": 15.19292183, "ECCENTRICITY": 0.00027281, "INCLINATION": 97.454, "RA_OF_ASC_NODE": 54.4428, "ARG_OF_PERICENTER": 190.0907, "MEAN_ANOMALY": 170.0273, "EPHEMERIS_TYPE": 0, "CLASSIFICATION_TYPE": "U", "NORAD_CAT_ID": 42767, "ELEMENT_SET_NO": 999, "REV_AT_EPOCH": 47139, "BSTAR": 0.00024445515, "MEAN_MOTION_DOT": 5.091e-05, "MEAN_MOTION_DDOT": 0}, "tle": {"line1": "1 42767U 17036C   25356.99025780  .00005091  00000+0  24446-3 0  9991", "line2": "2 42767  97.4540  54.4428 0002728 190.0907 170.0273 15.19292183471394"}}, "geometry": {"type": "Point", "coordinates": [-116.21739543287461, 49.84287184372228]}}, {"type": "Feature", "properties": {"norad_id": 42920, "name": "FORMOSAT-5", "group": "resource", "lat": 77.1802920729812, "lon": 31.935660607437875, "alt_km": 722.8273456266315, "timestamp": "2025-12-23T09:49:06.733912+00:00", "meta": {"OBJECT_NAME": "FORMOSAT-5", "OBJECT_ID": "2017-049A", "EPOCH": "2025-12-22T21:51:47.146176", "MEAN_MOTION": 14.50766204, "ECCENTRICITY": 0.00098221, "INCLINATION": 98.244, "RA_OF_ASC_NODE": 71.0253, "ARG_OF_PERICENTER": 266.7946, "MEAN_ANOMALY": 93.2125, "EPHEMERIS_TYPE": 0, "CLASSIFICATION_TYPE": "U", "NORAD_CAT_ID": 42920, "ELEMENT_SET_NO": 999, "REV_AT_EPOCH": 44111, "BSTAR": 6.728885e-05, "MEAN_MOTION_DOT": 2.21e-06, "MEAN_MOTION_DDOT": 0}, "tle": {"line1": "1 42920U 17049A   25356.91096234  .00000221  00000+0  67289-4 0  9993", "line2": "2 42920  98.2440  71.0253 0009822 266.7946  93.2125 14.50766204441113"}}, "geometry": {"type": "Point", "coordinates": [31.935660607437875, 77.1802920729812]}}, {"type": "Feature", "properties": {"norad_id": 42969, "name": "SENTINEL-5P", "group": "resource", "lat": -5.6155561821026225, "lon": -63.23011231780668, "alt_km": 830.6593101892604, "timestamp": "2025-12-23T09:49:06.733923+00:00", "meta": {"OBJECT_NAME": "SENTINEL-5P", "OBJECT_ID": "2017-064A", "EPOCH": "2025-12-22T20:18:42.950880", "MEAN_MOTION": 14.19519853, "ECCENTRICITY": 0.00010225, "INCLINATION": 98.78, "RA_OF_ASC_NODE": 295.3414, "ARG_OF_PERICENTER": 91.3711, "MEAN_ANOMALY": 268.7582, "EPHEMERIS_TYPE": 0, "CLASSIFICATION_TYPE": "U", "NORAD_CAT_ID": 42969, "ELEMENT_SET_NO": 999, "REV_AT_EPOCH": 42454, "BSTAR": 5.1443237e-05, "MEAN_MOTION_DOT": 6.4e-07, "MEAN_MOTION_DDOT": 0}, "tle": {"line1": "1 42969U 17064A   25356.84633045  .00000064  00000+0  51443-4 0  9992", "line2": "2 42969  98.7800 295.3414 0001022  91.3711 268.7582 14.19519853424542"}}, "geometry": {"type": "Point", "coordinates": [-63.23011231780668, -5.6155561821026225]}}]}